OBJECT_NAME,OBJECT_ID,EPOCH,MEAN_MOTION,ECCENTRICITY,INCLINATION,RA_OF_ASC_NODE,ARG_OF_PERICENTER,MEAN_ANOMALY,EPHEMERIS_TYPE,CLASSIFICATION_TYPE,NORAD_CAT_ID,ELEMENT_SET_NO,REV_AT_EPOCH,BSTAR,MEAN_MOTION_DOT,MEAN_MOTION_DDOT
STARLINK-35193,2025-224H,2026-06-27T19:56:18.736224,15.30194518,.00009739,53.1579,220.0163,91.4532,268.6580,0,U,65889,999,4171,.38104212E-3,.10941E-3,0
STARLINK-34542,2025-224J,2026-06-27T19:51:45.504000,15.30198196,.00011766,53.1570,220.0083,84.5506,275.5629,0,U,65890,999,4173,.5980154E-3,.17393E-3,0
STARLINK-34791,2025-224K,2026-06-27T12:15:09.868032,15.30197533,.00012723,53.1585,221.5766,78.4920,281.6223,0,U,65891,999,4168,.57566697E-3,.16728E-3,0
STARLINK-34853,2025-224L,2026-06-27T19:44:04.927200,15.34419292,.00013792,53.1577,217.8473,83.5239,276.5920,0,U,65892,999,4169,.69807819E-3,.23297E-3,0
STARLINK-34921,2025-224M,2026-06-27T19:47:11.894208,15.30194867,.00009184,53.1577,219.9754,98.5151,261.5954,0,U,65893,999,4173,.41120093E-3,.11837E-3,0
STARLINK-34672,2025-224N,2026-06-27T19:36:33.469920,15.30197243,.00013087,53.1576,219.9296,81.1807,278.9342,0,U,65894,999,4173,.44392042E-3,.1281E-3,0
STARLINK-34898,2025-224P,2026-06-27T19:50:09.233664,15.34400206,.00013218,53.1576,217.8647,88.9097,271.2057,0,U,65895,999,4176,.67401012E-3,.22465E-3,0
STARLINK-34906,2025-224Q,2026-06-27T19:34:28.095744,15.31722278,.00006436,53.1551,219.2152,90.8350,269.2725,0,U,65896,999,4174,.72294684E-3,.22151E-3,0
STARLINK-34934,2025-224R,2026-06-27T19:31:58.282464,15.34399648,.00018694,53.1571,217.7826,86.8887,273.2329,0,U,65897,999,4171,.42728908E-3,.14087E-3,0
STARLINK-34936,2025-224S,2026-06-27T11:52:04.965888,15.34394132,.00010684,53.1570,219.3476,75.3989,284.7132,0,U,65898,999,4171,.50787442E-3,.16818E-3,0
STARLINK-35272,2025-224T,2026-06-27T19:16:49.569600,15.34393560,.00012059,53.1560,217.7183,89.8105,270.3036,0,U,65899,999,4175,.61060137E-3,.20306E-3,0
STARLINK-35264,2025-224U,2026-06-27T12:55:34.903488,15.34388161,.00009468,53.1558,218.9086,88.1291,271.9820,0,U,65900,999,4171,.47942669E-3,.1585E-3,0
STARLINK-35249,2025-224V,2026-06-27T19:39:35.680608,15.30198918,.00010232,53.1565,219.9406,86.8863,273.2255,0,U,65901,999,4171,.41828183E-3,.12049E-3,0
STARLINK-35278,2025-224W,2026-06-27T19:54:47.482272,15.30196935,.00010527,53.1579,220.0079,85.4755,274.6366,0,U,65902,999,4173,.35850744E-3,.10273E-3,0
STARLINK-35210,2025-224X,2026-06-27T20:08:28.303008,15.30195029,.00015436,53.1586,220.0668,89.6585,270.4592,0,U,65903,999,4171,.61311988E-3,.17841E-3,0
STARLINK-35348,2025-224Y,2026-06-27T19:22:53.076864,15.34398046,.00011949,53.1564,217.7431,94.3445,265.7694,0,U,65904,999,4171,.77694022E-3,.25963E-3,0
STARLINK-35380,2025-224Z,2026-06-27T19:25:55.322976,15.30192713,.00011128,53.1569,219.8811,81.8346,278.2781,0,U,65905,999,4168,.52441281E-3,.15201E-3,0
STARLINK-35385,2025-224AA,2026-06-27T19:38:02.186304,15.34389355,.00014952,53.1560,217.8088,89.2457,270.8717,0,U,65906,999,4174,.50216706E-3,.16622E-3,0
STARLINK-35347,2025-224AB,2026-06-27T19:28:56.703360,15.34398365,.00015043,53.1569,217.7668,71.7295,288.3871,0,U,65907,999,4174,.51710019E-3,.17134E-3,0
STARLINK-35329,2025-224AC,2026-06-27T19:47:08.197152,15.34410799,.00013971,53.1572,217.8489,84.5363,275.5799,0,U,65908,999,4175,.64206962E-3,.21386E-3,0
STARLINK-35387,2025-224AD,2026-06-27T20:02:22.862112,15.30222893,.00014025,53.1591,220.0387,85.6380,274.4781,0,U,65909,999,4168,.93493392E-3,.27453E-3,0
STARLINK-35523,2025-225A,2026-06-27T22:03:18.520704,15.34421204,.00011585,53.1591,13.0487,75.2616,284.8515,0,U,65910,999,4129,.75387068E-3,.25197E-3,0
STARLINK-35160,2025-225B,2026-06-27T20:14:22.070400,15.34408206,.00011509,53.1586,13.2886,104.2652,255.8478,0,U,65911,999,4128,.81410075E-3,.27237E-3,0
STARLINK-35508,2025-225C,2026-06-27T20:02:14.666208,15.34412394,.00010399,53.1585,13.2354,67.8401,292.2712,0,U,65912,999,4128,.69046939E-3,.23033E-3,0
STARLINK-35472,2025-225D,2026-06-27T19:13:53.853600,15.34408585,.00014973,53.1605,13.7340,86.1964,273.9210,0,U,65913,999,4127,.70764937E-3,.23615E-3,0
STARLINK-35524,2025-225E,2026-06-27T22:00:01.999584,15.34371386,.00017885,53.1609,13.1674,77.6889,211.7137,0,U,65914,999,582,.11437609E-2,.38431E-3,0
STARLINK-35539,2025-225F,2026-06-27T18:47:07.605024,15.30238829,.00012169,53.1594,14.3422,109.4918,250.6215,0,U,65915,999,4126,.7390685E-3,.2162E-3,0
STARLINK-35521,2025-225G,2026-06-27T22:48:45.292608,15.34414836,.00009899,53.1598,13.2406,76.4851,283.6261,0,U,65916,999,4129,.7989831E-3,.26728E-3,0
STARLINK-35478,2025-225H,2026-06-27T19:22:59.452320,15.34402877,.0001235,53.1615,13.7721,90.7820,269.3324,0,U,65917,999,4127,.65212162E-3,.21723E-3,0
STARLINK-35516,2025-225J,2026-06-27T20:02:57.562944,15.30208055,.00009493,53.1595,13.9405,86.1574,273.9536,0,U,65918,999,4127,.61645566E-3,.17947E-3,0
