STARLINK-35193          
1 65889U 25224H   26178.83077241  .00010941  00000+0  38104-3 0  9990
2 65889  53.1579 220.0163 0000973  91.4532 268.6580 15.30194518 41710
STARLINK-34542          
1 65890U 25224J   26178.82761000  .00017393  00000+0  59802-3 0  9990
2 65890  53.1570 220.0083 0001176  84.5506 275.5629 15.30198196 41733
STARLINK-34791          
1 65891U 25224K   26178.51053088  .00016728  00000+0  57567-3 0  9994
2 65891  53.1585 221.5766 0001272  78.4920 281.6223 15.30197533 41689
STARLINK-34853          
1 65892U 25224L   26178.82227925  .00023297  00000+0  69808-3 0  9992
2 65892  53.1577 217.8473 0001379  83.5239 276.5920 15.34419292 41693
STARLINK-34921          
1 65893U 25224M   26178.82444322  .00011837  00000+0  41120-3 0  9999
2 65893  53.1577 219.9754 0000918  98.5151 261.5954 15.30194867 41736
STARLINK-34672          
1 65894U 25224N   26178.81705405  .00012810  00000+0  44392-3 0  9997
2 65894  53.1576 219.9296 0001308  81.1807 278.9342 15.30197243 41731
STARLINK-34898          
1 65895U 25224P   26178.82649576  .00022465  00000+0  67401-3 0  9998
2 65895  53.1576 217.8647 0001321  88.9097 271.2057 15.34400206 41762
STARLINK-34906          
1 65896U 25224Q   26178.81560296  .00022151  00000+0  72295-3 0  9998
2 65896  53.1551 219.2152 0000643  90.8350 269.2725 15.31722278 41743
STARLINK-34934          
1 65897U 25224R   26178.81386901  .00014087  00000+0  42729-3 0  9996
2 65897  53.1571 217.7826 0001869  86.8887 273.2329 15.34399648 41714
STARLINK-34936          
1 65898U 25224S   26178.49450192  .00016818  00000+0  50787-3 0  9992
2 65898  53.1570 219.3476 0001068  75.3989 284.7132 15.34394132 41712
STARLINK-35272          
1 65899U 25224T   26178.80335150  .00020306  00000+0  61060-3 0  9997
2 65899  53.1560 217.7183 0001205  89.8105 270.3036 15.34393560 41754
STARLINK-35264          
1 65900U 25224U   26178.53859842  .00015850  00000+0  47943-3 0  9991
2 65900  53.1558 218.9086 0000946  88.1291 271.9820 15.34388161 41713
STARLINK-35249          
1 65901U 25224V   26178.81916297  .00012049  00000+0  41828-3 0  9994
2 65901  53.1565 219.9406 0001023  86.8863 273.2255 15.30198918 41718
STARLINK-35278          
1 65902U 25224W   26178.82971623  .00010273  00000+0  35851-3 0  9996
2 65902  53.1579 220.0079 0001052  85.4755 274.6366 15.30196935 41737
STARLINK-35210          
1 65903U 25224X   26178.83921647  .00017841  00000+0  61312-3 0  9998
2 65903  53.1586 220.0668 0001543  89.6585 270.4592 15.30195029 41718
STARLINK-35348          
1 65904U 25224Y   26178.80755876  .00025963  00000+0  77694-3 0  9999
2 65904  53.1564 217.7431 0001194  94.3445 265.7694 15.34398046 41714
STARLINK-35380          
1 65905U 25224Z   26178.80966809  .00015201  00000+0  52441-3 0  9997
2 65905  53.1569 219.8811 0001112  81.8346 278.2781 15.30192713 41687
STARLINK-35385          
1 65906U 25224AA  26178.81808086  .00016622  00000+0  50217-3 0  9998
2 65906  53.1560 217.8088 0001495  89.2457 270.8717 15.34389355 41740
STARLINK-35347          
1 65907U 25224AB  26178.81176740  .00017134  00000+0  51710-3 0  9992
2 65907  53.1569 217.7668 0001504  71.7295 288.3871 15.34398365 41746
STARLINK-35329          
1 65908U 25224AC  26178.82440043  .00021386  00000+0  64207-3 0  9993
2 65908  53.1572 217.8489 0001397  84.5363 275.5799 15.34410799 41755
STARLINK-35387          
1 65909U 25224AD  26178.83498683  .00027453  00000+0  93493-3 0  9998
2 65909  53.1591 220.0387 0001402  85.6380 274.4781 15.30222893 41681
STARLINK-35523          
1 65910U 25225A   26178.91896436  .00025197  00000+0  75387-3 0  9993
2 65910  53.1591  13.0487 0001158  75.2616 284.8515 15.34421204 41297
STARLINK-35160          
1 65911U 25225B   26178.84331100  .00027237  00000+0  81410-3 0  9999
2 65911  53.1586  13.2886 0001150 104.2652 255.8478 15.34408206 41284
STARLINK-35508          
1 65912U 25225C   26178.83489197  .00023033  00000+0  69047-3 0  9991
2 65912  53.1585  13.2354 0001039  67.8401 292.2712 15.34412394 41285
STARLINK-35472          
1 65913U 25225D   26178.80131775  .00023615  00000+0  70765-3 0  9990
2 65913  53.1605  13.7340 0001497  86.1964 273.9210 15.34408585 41270
STARLINK-35524          
1 65914U 25225E   26178.91668981  .00038431  00000+0  11438-2 0  9990
2 65914  53.1609  13.1674 0001788  77.6889 211.7137 15.34371386  5820
STARLINK-35539          
1 65915U 25225F   26178.78272691  .00021620  00000+0  73907-3 0  9997
2 65915  53.1594  14.3422 0001216 109.4918 250.6215 15.30238829 41268
STARLINK-35521          
1 65916U 25225G   26178.95052422  .00026728  00000+0  79898-3 0  9994
2 65916  53.1598  13.2406 0000989  76.4851 283.6261 15.34414836 41296
STARLINK-35478          
1 65917U 25225H   26178.80763255  .00021723  00000+0  65212-3 0  9997
2 65917  53.1615  13.7721 0001235  90.7820 269.3324 15.34402877 41273
STARLINK-35516          
1 65918U 25225J   26178.83538846  .00017947  00000+0  61646-3 0  9997
2 65918  53.1595  13.9405 0000949  86.1574 273.9536 15.30208055 41272
